COSMOS 2433 (720)       
1 32275C 07052A   22147.99979167 -.00000000  00000-0  00000-0 0  1472
2 32275  66.0828   5.3473 0000212 246.9734 162.4245  2.13104235    19
COSMOS 2432 (719)       
1 32276C 07052B   22147.99979167 -.00000000  00000-0  00000-0 0  1473
2 32276  66.0963   5.4479 0009745 342.2523  15.5347  2.13103514    13
COSMOS 2434 (721)       
1 32393C 07065A   22147.99979167  .00000000  00000-0  00000-0 0  1476
2 32393  64.3866 242.1248 0002224 100.4826 198.4063  2.13103234    10
COSMOS 2436 (723)       
1 32395C 07065C   22147.99979167  .00000000  00000-0  00000-0 0  1478
2 32395  64.3953 242.1818 0014709 358.6669  76.1185  2.13103083    14
COSMOS 2456 (730)       
1 36111C 09070A   22147.99979167 -.00000000  00000-0  00000-0 0  1477
2 36111  64.3493 121.7570 0006139 305.0514 159.6926  2.13099379    15
COSMOS 2457 (733)       
1 36112C 09070B   22147.99979167 -.00000000  00000-0  00000-0 0  1478
2 36112  64.3325 121.6334 0003918 196.9729  34.8991  2.13101667    14
COSMOS 2461 (735)       
1 36401C 10007B   22147.99979167  .00000000  00000-0  00000-0 0  1470
2 36401  65.9686   4.1883 0021375  12.4569 254.3941  2.13104008    13
COSMOS 2460 (732)       
1 36402C 10007C   22147.99979167  .00000000  00000-0  00000-0 0  1471
2 36402  65.9554   4.1392 0002649  66.7493 148.3220  2.13106658    19
COSMOS 2476 (744)       
1 37867C 11064A   22147.99979167 -.00000000  00000-0  00000-0 0  1472
2 37867  64.6385 123.1054 0022968 241.5174 128.5675  2.13101919    14
COSMOS 2477 (745)       
1 37868C 11064B   22147.99979167 -.00000000  00000-0  00000-0 0  1473
2 37868  64.6462 123.1698 0020323 243.2932 304.9120  2.13101903    17
COSMOS 2475 (743)       
1 37869C 11064C   22147.99979167 -.00000000  00000-0  00000-0 0  1474
2 37869  64.6534 123.1778 0025007 259.1414 247.0508  2.13102162    17
COSMOS 2485 (747)       
1 39155C 13019A   22147.99979167 -.00000000  00000-0  00000-0 0  1476
2 39155  64.8024 123.5292 0023298 237.5374 176.9370  2.13102026    19
COSMOS 2492 (754)       
1 39620C 14012A   22147.99979167  .00000000  00000-0  00000-0 0  1476
2 39620  65.8420   3.8233 0012559 334.5802 114.3984  2.13103373    17
COSMOS 2500 (755)       
1 40001C 14032A   22147.99979167  .00000000  00000-0  00000-0 0  1473
2 40001  65.7815   3.6860 0004857 181.8776 125.8259  2.13102601    13
COSMOS 2501 (702K)      
1 40315C 14075A   22147.99979167  .00000000  00000-0  00000-0 0  1478
2 40315  63.6938 241.8870 0018497 208.8427 266.7426  2.13101595    11
COSMOS 2514 (751)       
1 41330C 16008A   22147.99979167  .00000000  00000-0  00000-0 0  1474
2 41330  65.5818   3.3829 0008039 202.5103 288.9830  2.13103009    12
COSMOS 2547 (705K)      
1 46805C 20075A   22147.99979167  .00000000  00000-0  00000-0 0  1475
2 46805  64.6640 242.1583 0007344 243.4340 145.2440  2.13103330    11
COSMOS 2522 (752)       
1 42939C 17055A   22147.99979167  .00000000  00000-0  00000-0 0  1473
2 42939  64.1534 242.5464 0008149 240.2744  10.6703  2.13101997    15
COSMOS 2527 (756)       
1 43508C 18053A   22147.99979167 -.00000000  00000-0  00000-0 0  1476
2 43508  64.9654 123.5250 0009455 243.5928  39.4653  2.13102669    11
COSMOS 2529 (757)       
1 43687C 18086A   22147.99979167  .00000000  00000-0  00000-0 0  1479
2 43687  64.3683 242.8571 0009882 263.7406 302.7278  2.13102202    17
COSMOS 2534 (758)       
1 44299C 19030A   22147.99979167  .00000000  00000-0  00000-0 0  1479
2 44299  64.4401 242.7399 0012321 285.0080  56.0480  2.13102155    11
COSMOS 2544 (759)       
1 44850C 19088A   22147.99979167 -.00000000  00000-0  00000-0 0  1476
2 44850  64.9506 123.3776 0014463 264.4294  62.1143  2.13102383    12
COSMOS 2545 (760)       
1 45358C 20018A   22147.99979167  .00000000  00000-0  00000-0 0  1474
2 45358  64.9192   4.0077 0006460 248.7590 287.2836  2.13102925    19
